SENTINEL-6              
1 46984U 20086A   24232.31700946 -.00000029  00000+0  13835-3 0  9994
2 46984  66.0407  80.1505 0007775 269.7437  90.2688 12.80930841174910
